format  = 'OEF2.0'       ! file format
rectype = 'ML'           ! record type (1L/ML)
refsys  = ECLM J2000     ! default reference system
END_OF_HEADER
2023DZ2
! Keplerian elements: a, e, i, long. node, arg. peric., mean anomaly
 KEP   2.2348746517799687E+00  5.5599749865188230E-01   0.1151576166454 186.8111020713853   8.3558037411435  3.5747675046060311E+02
 MJD     60028.797456794 TDT
 MAG  24.242  0.150
! Non-gravitational parameters: model used, number of model parameters, dimension
 LSP   0  0    6
! PERIHELION   9.9228993558980938E-01
! APHELION   3.4774593679701269E+00
! ANODE  -2.1251920861335856E-03
! DNODE   2.4319364563731822E+00
! MOID   5.8841716901534327E-05
! PERIOD   1.2203325108386439E+03
! PHA F
! VINFTY     7.7323361179230
! U_PAR 0.7
! ORB_TYPE Apollo
! RMS    6.62859E-08   1.39775E-08   8.46758E-07   2.31683E-05   2.32976E-05   5.78066E-07
 COV   4.393815411249447E-15  9.231113514066757E-16  2.290839522127190E-15
 COV  -1.148146491836521E-13  1.862805035816138E-13 -8.753832691387669E-15
 COV   1.953718628330440E-16  4.454759344253319E-16 -2.270933708568854E-14
 COV   4.057280227979807E-14 -2.511231216002794E-15  7.169996777960503E-13
 COV  -1.610621312905842E-11  1.607743886642882E-11  1.106449443189157E-14
 COV   5.367685571661045E-10 -5.363464048397964E-10 -3.128883906301786E-13
 COV   5.427758488261470E-10 -1.171828195043716E-12  3.341605034715122E-13
 COR   1.000000000000000E+00  9.963276405146544E-01  4.081448142821179E-02
 COR  -7.476233645046414E-02  1.206246987703851E-01 -2.284545329443576E-01
 COR   1.000000000000000E+00  3.763862577511610E-02 -7.012613673592714E-02
 COR   1.245930273051185E-01 -3.107979418887824E-01  9.999999999999999E-01
 COR  -8.209948399592983E-01  8.149803339364921E-01  2.260448078956319E-02
 COR   9.999999999999999E-01 -9.936686367704808E-01 -2.336244851119136E-02
 COR   1.000000000000000E+00 -8.701139416984317E-02  1.000000000000000E+00
